{
  "type": "FeatureCollection",
  "features": [
    {
      "type": "Feature",
      "properties": {
        "norad_id": 25590,
        "name": "COSMOS 2361",
        "group": "musson",
        "lat": 0.03784550551279896,
        "lon": -18.281316110948335,
        "alt_km": 996.1460648867323,
        "timestamp": "2025-12-15T22:44:29.197554+00:00",
        "meta_object_name": "COSMOS 2361",
        "meta_object_id": "1998-076A",
        "meta_epoch": "2025-12-15T05:18:18.458208",
        "meta_mean_motion": 13.73217757,
        "meta_eccentricity": 0.00300774,
        "meta_inclination": 82.9341,
        "meta_ra_of_asc_node": 342.2511,
        "meta_arg_of_pericenter": 258.3986,
        "meta_mean_anomaly": 111.8614,
        "meta_ephemeris_type": 0,
        "meta_classification_type": "U",
        "meta_norad_cat_id": 25590,
        "meta_element_set_no": 999,
        "meta_rev_at_epoch": 35145,
        "meta_bstar": 7.2799317e-05,
        "meta_mean_motion_dot": 8.2e-07,
        "meta_mean_motion_ddot": 0,
        "tle_line1": "1 25590U 98076A   25349.22104697  .00000082  00000+0  72799-4 0  9992",
        "tle_line2": "2 25590  82.9341 342.2511 0030077 258.3986 111.8614 13.73217757351459"
      },
      "geometry": {
        "type": "Point",
        "coordinates": [
          -18.281316110948335,
          0.03784550551279896
        ]
      }
    },
    {
      "type": "Feature",
      "properties": {
        "norad_id": 26818,
        "name": "COSMOS 2378",
        "group": "musson",
        "lat": 79.88507693894906,
        "lon": 41.4474817746974,
        "alt_km": 986.7136899278612,
        "timestamp": "2025-12-15T22:44:29.197576+00:00",
        "meta_object_name": "COSMOS 2378",
        "meta_object_id": "2001-023A",
        "meta_epoch": "2025-12-15T03:26:43.794816",
        "meta_mean_motion": 13.74142132,
        "meta_eccentricity": 0.00325512,
        "meta_inclination": 82.9272,
        "meta_ra_of_asc_node": 357.9424,
        "meta_arg_of_pericenter": 198.1021,
        "meta_mean_anomaly": 229.9424,
        "meta_ephemeris_type": 0,
        "meta_classification_type": "U",
        "meta_norad_cat_id": 26818,
        "meta_element_set_no": 999,
        "meta_rev_at_epoch": 22956,
        "meta_bstar": 4.6879707e-05,
        "meta_mean_motion_dot": 5.9e-07,
        "meta_mean_motion_ddot": 0,
        "tle_line1": "1 26818U 01023A   25349.14356244  .00000059  00000+0  46880-4 0  9996",
        "tle_line2": "2 26818  82.9272 357.9424 0032551 198.1021 229.9424 13.74142132229563"
      },
      "geometry": {
        "type": "Point",
        "coordinates": [
          41.4474817746974,
          79.88507693894906
        ]
      }
    },
    {
      "type": "Feature",
      "properties": {
        "norad_id": 27436,
        "name": "COSMOS 2389",
        "group": "musson",
        "lat": -58.15892173906322,
        "lon": -66.88314392229316,
        "alt_km": 1000.5072707750405,
        "timestamp": "2025-12-15T22:44:29.197590+00:00",
        "meta_object_name": "COSMOS 2389",
        "meta_object_id": "2002-026A",
        "meta_epoch": "2025-12-15T08:03:05.840064",
        "meta_mean_motion": 13.75154984,
        "meta_eccentricity": 0.00475656,
        "meta_inclination": 82.9504,
        "meta_ra_of_asc_node": 305.063,
        "meta_arg_of_pericenter": 53.6971,
        "meta_mean_anomaly": 99.5994,
        "meta_ephemeris_type": 0,
        "meta_classification_type": "U",
        "meta_norad_cat_id": 27436,
        "meta_element_set_no": 999,
        "meta_rev_at_epoch": 18184,
        "meta_bstar": 6.5391168e-05,
        "meta_mean_motion_dot": 7.9e-07,
        "meta_mean_motion_ddot": 0,
        "tle_line1": "1 27436U 02026A   25349.33548426  .00000079  00000+0  65391-4 0  9993",
        "tle_line2": "2 27436  82.9504 305.0630 0047565  53.6971  99.5994 13.75154984181841"
      },
      "geometry": {
        "type": "Point",
        "coordinates": [
          -66.88314392229316,
          -58.15892173906322
        ]
      }
    },
    {
      "type": "Feature",
      "properties": {
        "norad_id": 27818,
        "name": "COSMOS 2398",
        "group": "musson",
        "lat": -42.45729830506885,
        "lon": 96.83704994721475,
        "alt_km": 1009.4346619069038,
        "timestamp": "2025-12-15T22:44:29.197602+00:00",
        "meta_object_name": "COSMOS 2398",
        "meta_object_id": "2003-023A",
        "meta_epoch": "2025-12-15T08:14:59.476416",
        "meta_mean_motion": 13.72385979,
        "meta_eccentricity": 0.00326449,
        "meta_inclination": 82.9485,
        "meta_ra_of_asc_node": 270.7794,
        "meta_arg_of_pericenter": 104.8339,
        "meta_mean_anomaly": 16.078,
        "meta_ephemeris_type": 0,
        "meta_classification_type": "U",
        "meta_norad_cat_id": 27818,
        "meta_element_set_no": 999,
        "meta_rev_at_epoch": 12852,
        "meta_bstar": 3.8936152e-05,
        "meta_mean_motion_dot": 5.1e-07,
        "meta_mean_motion_ddot": 0,
        "tle_line1": "1 27818U 03023A   25349.34374394  .00000051  00000+0  38936-4 0  9992",
        "tle_line2": "2 27818  82.9485 270.7794 0032644 104.8339  16.0780 13.72385979128521"
      },
      "geometry": {
        "type": "Point",
        "coordinates": [
          96.83704994721475,
          -42.45729830506885
        ]
      }
    },
    {
      "type": "Feature",
      "properties": {
        "norad_id": 28380,
        "name": "COSMOS 2407",
        "group": "musson",
        "lat": 74.46240873682058,
        "lon": 4.130840703823406,
        "alt_km": 954.0375154764552,
        "timestamp": "2025-12-15T22:44:29.197613+00:00",
        "meta_object_name": "COSMOS 2407",
        "meta_object_id": "2004-028A",
        "meta_epoch": "2025-12-15T09:07:03.465408",
        "meta_mean_motion": 13.76313957,
        "meta_eccentricity": 0.00402373,
        "meta_inclination": 82.9602,
        "meta_ra_of_asc_node": 210.938,
        "meta_arg_of_pericenter": 47.6754,
        "meta_mean_anomaly": 124.7853,
        "meta_ephemeris_type": 0,
        "meta_classification_type": "U",
        "meta_norad_cat_id": 28380,
        "meta_element_set_no": 999,
        "meta_rev_at_epoch": 7459,
        "meta_bstar": 6.5739359e-05,
        "meta_mean_motion_dot": 8e-07,
        "meta_mean_motion_ddot": 0,
        "tle_line1": "1 28380U 04028A   25349.37990122  .00000080  00000+0  65739-4 0  9992",
        "tle_line2": "2 28380  82.9602 210.9380 0040237  47.6754 124.7853 13.76313957 74592"
      },
      "geometry": {
        "type": "Point",
        "coordinates": [
          4.130840703823406,
          74.46240873682058
        ]
      }
    },
    {
      "type": "Feature",
      "properties": {
        "norad_id": 28521,
        "name": "COSMOS 2414",
        "group": "musson",
        "lat": 38.901292618262296,
        "lon": -3.4975981650000643,
        "alt_km": 903.4552706422865,
        "timestamp": "2025-12-15T22:44:29.197624+00:00",
        "meta_object_name": "COSMOS 2414",
        "meta_object_id": "2005-002A",
        "meta_epoch": "2025-12-15T06:29:45.944160",
        "meta_mean_motion": 13.87903292,
        "meta_eccentricity": 0.00410324,
        "meta_inclination": 82.9489,
        "meta_ra_of_asc_node": 182.7461,
        "meta_arg_of_pericenter": 132.6111,
        "meta_mean_anomaly": 227.8526,
        "meta_ephemeris_type": 0,
        "meta_classification_type": "U",
        "meta_norad_cat_id": 28521,
        "meta_element_set_no": 999,
        "meta_rev_at_epoch": 5830,
        "meta_bstar": 7.172898e-05,
        "meta_mean_motion_dot": 1.02e-06,
        "meta_mean_motion_ddot": 0,
        "tle_line1": "1 28521U 05002A   25349.27067065  .00000102  00000+0  71729-4 0  9993",
        "tle_line2": "2 28521  82.9489 182.7461 0041032 132.6111 227.8526 13.87903292 58306"
      },
      "geometry": {
        "type": "Point",
        "coordinates": [
          -3.4975981650000643,
          38.901292618262296
        ]
      }
    },
    {
      "type": "Feature",
      "properties": {
        "norad_id": 32052,
        "name": "COSMOS 2429",
        "group": "musson",
        "lat": 51.45190118109999,
        "lon": 152.0489697424658,
        "alt_km": 980.6903167309792,
        "timestamp": "2025-12-15T22:44:29.197636+00:00",
        "meta_object_name": "COSMOS 2429",
        "meta_object_id": "2007-038A",
        "meta_epoch": "2025-12-15T08:09:16.862400",
        "meta_mean_motion": 13.75149618,
        "meta_eccentricity": 0.00390955,
        "meta_inclination": 82.9805,
        "meta_ra_of_asc_node": 341.3918,
        "meta_arg_of_pericenter": 30.763,
        "meta_mean_anomaly": 329.5806,
        "meta_ephemeris_type": 0,
        "meta_classification_type": "U",
        "meta_norad_cat_id": 32052,
        "meta_element_set_no": 999,
        "meta_rev_at_epoch": 91638,
        "meta_bstar": 6.8100853e-05,
        "meta_mean_motion_dot": 8.1e-07,
        "meta_mean_motion_ddot": 0,
        "tle_line1": "1 32052U 07038A   25349.33977850  .00000081  00000+0  68101-4 0  9993",
        "tle_line2": "2 32052  82.9805 341.3918 0039095  30.7630 329.5806 13.75149618916385"
      },
      "geometry": {
        "type": "Point",
        "coordinates": [
          152.0489697424658,
          51.45190118109999
        ]
      }
    },
    {
      "type": "Feature",
      "properties": {
        "norad_id": 35635,
        "name": "COSMOS 2454",
        "group": "musson",
        "lat": -34.06787338980434,
        "lon": -8.990291336619325,
        "alt_km": 947.8527144745294,
        "timestamp": "2025-12-15T22:44:29.197647+00:00",
        "meta_object_name": "COSMOS 2454",
        "meta_object_id": "2009-039A",
        "meta_epoch": "2025-12-15T06:59:56.349888",
        "meta_mean_motion": 13.89928933,
        "meta_eccentricity": 0.00204016,
        "meta_inclination": 82.9554,
        "meta_ra_of_asc_node": 166.7105,
        "meta_arg_of_pericenter": 66.8977,
        "meta_mean_anomaly": 106.987,
        "meta_ephemeris_type": 0,
        "meta_classification_type": "U",
        "meta_norad_cat_id": 35635,
        "meta_element_set_no": 999,
        "meta_rev_at_epoch": 83185,
        "meta_bstar": 6.3376272e-05,
        "meta_mean_motion_dot": 9.4e-07,
        "meta_mean_motion_ddot": 0,
        "tle_line1": "1 35635U 09039A   25349.29162442  .00000094  00000+0  63376-4 0  9997",
        "tle_line2": "2 35635  82.9554 166.7105 0020401  66.8977 106.9870 13.89928933831854"
      },
      "geometry": {
        "type": "Point",
        "coordinates": [
          -8.990291336619325,
          -34.06787338980434
        ]
      }
    },
    {
      "type": "Feature",
      "properties": {
        "norad_id": 36519,
        "name": "COSMOS 2463",
        "group": "musson",
        "lat": 43.399237729507455,
        "lon": 31.064847083026557,
        "alt_km": 1004.6514898346231,
        "timestamp": "2025-12-15T22:44:29.197658+00:00",
        "meta_object_name": "COSMOS 2463",
        "meta_object_id": "2010-017A",
        "meta_epoch": "2025-12-15T08:34:36.799104",
        "meta_mean_motion": 13.71649309,
        "meta_eccentricity": 0.00347526,
        "meta_inclination": 82.9611,
        "meta_ra_of_asc_node": 24.7891,
        "meta_arg_of_pericenter": 280.4961,
        "meta_mean_anomaly": 90.3849,
        "meta_ephemeris_type": 0,
        "meta_classification_type": "U",
        "meta_norad_cat_id": 36519,
        "meta_element_set_no": 999,
        "meta_rev_at_epoch": 78273,
        "meta_bstar": 4.7775729e-05,
        "meta_mean_motion_dot": 5.8e-07,
        "meta_mean_motion_ddot": 0,
        "tle_line1": "1 36519U 10017A   25349.35737036  .00000058  00000+0  47776-4 0  9997",
        "tle_line2": "2 36519  82.9611  24.7891 0034752 280.4961  90.3849 13.71649309782738"
      },
      "geometry": {
        "type": "Point",
        "coordinates": [
          31.064847083026557,
          43.399237729507455
        ]
      }
    }
  ]
}